IRIDIUM 7               
1 24793U 97020B   25025.66318294  .00000836  00000+0  28263-3 0  9996
2 24793  86.3934 236.5886 0001782  94.4315 265.7085 14.35731571451440
IRIDIUM 5               
1 24795U 97020D   25025.85656809  .00008071  00000+0  70118-3 0  9991
2 24795  86.3945 149.2509 0111518 288.8301  70.0858 14.92116096464226
IRIDIUM 4               
1 24796U 97020E   25025.59721477  .00000789  00000+0  26157-3 0  9999
2 24796  86.3932 233.5861 0001860  87.7829 272.3581 14.36641382451999
IRIDIUM 914             
1 24836U 97030A   25025.64928441  .00001011  00000+0  31089-3 0  9990
2 24836  86.3908 242.5997 0001940  36.9183 323.2150 14.40620545586603
IRIDIUM 16              
1 24841U 97030F   25025.74395289  .00000942  00000+0  30228-3 0  9991
2 24841  86.4006 265.1236 0003036 131.8535 228.2923 14.38484466446525
IRIDIUM 911             
1 24842U 97030G   25025.71143440  .00001279  00000+0  34369-3 0  9993
2 24842  86.4431 264.0539 0013011 205.9991 154.0561 14.47322864454475
IRIDIUM 17              
1 24870U 97034B   25025.78249896  .00001087  00000+0  35602-3 0  9995
2 24870  86.3961 294.6683 0003576  99.8661 260.2940 14.37598142443125
IRIDIUM 920             
1 24871U 97034C   25025.77450307  .00000988  00000+0  29930-3 0  9992
2 24871  86.3954 274.2120 0011075 181.9085 178.2075 14.41303011446061
